STARLINK-31152          
1 58734U 24005G   26068.46665831 -.00003519  00000+0 -12158-3 0  9998
2 58734  42.9985 220.6599 0001346 280.6789  79.3910 15.26736091120410
LYNK TOWER 5            
1 59121U 24043Z   26068.92489786  .00009048  00000+0  31902-3 0  9994
2 59121  97.5458 204.7305 0010406 234.6422 125.3846 15.29454506111860
